NORAD_CAT_ID,OBJECT_NAME,OBJECT_TYPE,EPOCH,MEAN_MOTION,ECCENTRICITY,INCLINATION,RA_OF_ASC_NODE,ARG_OF_PERICENTER,MEAN_ANOMALY,BSTAR,MEAN_MOTION_DOT,MEAN_MOTION_DDOT,TLE_LINE0,TLE_LINE1,TLE_LINE2,SEMIMAJOR_AXIS,PERIOD,APOGEE,PERIGEE,DECAYED
51895.0,STARLINK-3594,PAYLOAD,2022-09-07 14:00:01,15.08840803,0.0001766999999999,53.2189,341.2463,51.2236,15.6298,0.00054781,8.441e-05,0.0,0 STARLINK-3594,1 51895U 22022AV  22250.58334491  .00008441  00000-0  54781-3 0  9999,2 51895  53.2189 341.2463 0001767  51.2236  15.6298 15.08840803  1303,6917.878000000002,95.438,540.965,538.521,0.0
51895.0,STARLINK-3594,PAYLOAD,2022-09-07 22:00:00,15.08875646,0.0001666999999999,53.2187,339.749,49.8263,28.6222,-0.0043293,-0.000686,0.0,0 STARLINK-3594,1 51895U 22022AV  22250.91667824 -.00068600  00000-0 -43293-2 0  9995,2 51895  53.2187 339.7490 0001667  49.8263  28.6222 15.08875646  1309,6917.771,95.435,540.79,538.4830000000002,0.0
51895.0,STARLINK-3594,PAYLOAD,2022-09-08 06:00:00,15.0883537,0.0001575,53.2188,338.2519999999999,54.508,35.552,0.0017631,0.0002788,0.0,0 STARLINK-3594,1 51895U 22022AV  22251.25001157  .00027880  00000-0  17631-2 0  9994,2 51895  53.2188 338.2520 0001575  54.5080  35.5520 15.08835370 30249,6917.895,95.438,540.849,538.67,0.0
51895.0,STARLINK-3594,PAYLOAD,2022-09-08 14:00:01,15.08838736,0.0001763,53.2188,336.7576,48.2121,53.4472,0.00097325,0.00015235,0.0,0 STARLINK-3594,1 51895U 22022AV  22251.58334491  .00015235  00000-0  97325-3 0  9990,2 51895  53.2188 336.7576 0001763  48.2121  53.4472 15.08838736  1307,6917.884,95.438,540.969,538.53,0.0
51895.0,STARLINK-3594,PAYLOAD,2022-09-08 22:00:00,15.08874712,0.0001728,53.2187,335.2602,49.4712,63.791,-0.0037743,-0.00059914,0.0,0 STARLINK-3594,1 51895U 22022AV  22251.91667824 -.00059914  00000-0 -37743-2 0  9997,2 51895  53.2187 335.2602 0001728  49.4712  63.7910 15.08874712  1305,6917.774,95.435,540.835,538.444,0.0
51895.0,STARLINK-3594,PAYLOAD,2022-09-09 00:00:02,15.08844635,0.0001675999999999,53.2188,334.8856,50.9508,155.2872,-0.00053798,-8.841e-05,0.0,0 STARLINK-3594,1 51895U 22022AV  22252.00002315 -.00008841  00000-0 -53798-3 0  9998,2 51895  53.2188 334.8856 0001676  50.9508 155.2872 15.08844635 30356,6917.866,95.437,540.891,538.572,0.0
51895.0,STARLINK-3594,PAYLOAD,2022-09-09 14:00:01,15.08817414,0.0001781,53.2178,332.2682,45.6704,90.8009,0.0018963,0.00030002,0.0,0 STARLINK-3594,1 51895U 22022AV  22252.58334491  .00030002  00000-0  18963-2 0  9990,2 51895  53.2178 332.2682 0001781  45.6704  90.8009 15.08817414  1304,6917.949000000001,95.439,541.047,538.582,0.0
51895.0,STARLINK-3594,PAYLOAD,2022-09-09 22:00:00,15.08837624,0.0001721999999999,53.2175,330.7705,45.7929,102.2614,-0.00010096,-1.894e-05,0.0,0 STARLINK-3594,1 51895U 22022AV  22252.91667824 -.00001894  00000-0 -10096-3 0  9995,2 51895  53.2175 330.7705 0001722  45.7929 102.2614 15.08837624  1300,6917.888000000001,95.438,540.944,538.561,0.0
51895.0,STARLINK-3594,PAYLOAD,2022-09-10 06:00:02,15.08842554,0.0001785,53.2189,329.2742,52.8936,106.8512,0.00097888,0.00015326,0.0,0 STARLINK-3594,1 51895U 22022AV  22253.25002315  .00015326  00000-0  97888-3 0  9998,2 51895  53.2189 329.2742 0001785  52.8936 106.8512 15.08842554 30548,6917.873000000001,95.437,540.972,538.503,0.0
51895.0,STARLINK-3594,PAYLOAD,2022-09-10 14:00:01,15.08786606,0.0001758,53.2178,327.7791,45.2085,126.0542,0.0050335,0.0008062,0.0,0 STARLINK-3594,1 51895U 22022AV  22253.58334491  .00080620  00000-0  50335-2 0  9991,2 51895  53.2178 327.7791 0001758  45.2085 126.0542 15.08786606 30591,6918.044,95.441,541.125,538.692,0.0
51895.0,STARLINK-3594,PAYLOAD,2022-09-10 22:00:00,15.08837869,0.000166,53.2175,326.2813,44.25899999999999,138.5719,-0.00012514,-2.279e-05,0.0,0 STARLINK-3594,1 51895U 22022AV  22253.91667824 -.00002279  00000-0 -12514-3 0  9991,2 51895  53.2175 326.2813 0001660  44.2590 138.5719 15.08837869  1308,6917.887,95.438,540.9,538.604,0.0
51895.0,STARLINK-3594,PAYLOAD,2022-09-11 06:00:00,15.08868635,0.0001768,53.2191,324.7858,50.9221,143.5471,-0.0024262,-0.00038724,0.0,0 STARLINK-3594,1 51895U 22022AV  22254.25001157 -.00038724  00000-0 -24262-2 0  9996,2 51895  53.2191 324.7858 0001768  50.9221 143.5471 15.08868635 30692,6917.793000000002,95.436,540.881,538.435,0.0
51895.0,STARLINK-3594,PAYLOAD,2022-09-11 14:00:01,15.08823626,0.0001963,53.2189,323.291,45.2297,160.8575,0.0014867,0.00023442,0.0,0 STARLINK-3594,1 51895U 22022AV  22254.58334491  .00023442  00000-0  14867-2 0  9991,2 51895  53.2189 323.2910 0001963  45.2297 160.8575 15.08823626  1303,6917.93,95.439,541.153,538.437,0.0
51895.0,STARLINK-3594,PAYLOAD,2022-09-11 22:00:00,15.0883461,0.0001763,53.2188,321.7932,46.1004,171.5758,-0.0014857,-0.00023852,0.0,0 STARLINK-3594,1 51895U 22022AV  22254.91667824 -.00023852  00000-0 -14857-2 0  9993,2 51895  53.2188 321.7932 0001763  46.1004 171.5758 15.08834610  1300,6917.897,95.438,540.981,538.5419999999998,0.0
51895.0,STARLINK-3594,PAYLOAD,2022-09-12 06:00:00,15.08838688,0.000172,53.2189,320.2969,49.3913,179.86,0.00031286,4.694e-05,0.0,0 STARLINK-3594,1 51895U 22022AV  22255.25001157  .00004694  00000-0  31286-3 0  9999,2 51895  53.2189 320.2969 0001720  49.3913 179.8600 15.08838688 30849,6917.884,95.438,540.939,538.56,0.0
51895.0,STARLINK-3594,PAYLOAD,2022-09-12 14:00:01,15.08831389,0.0001875,53.2186,318.8021,42.286,198.5649,0.00025786,3.817e-05,0.0,0 STARLINK-3594,1 51895U 22022AV  22255.58334491  .00003817  00000-0  25786-3 0  9999,2 51895  53.2186 318.8021 0001875  42.2860 198.5649 15.08831389  1303,6917.906999999997,95.438,541.069,538.475,0.0
51895.0,STARLINK-3594,PAYLOAD,2022-09-12 22:00:00,15.08830118,0.0001663,53.2184,317.3041,43.6433,208.802,0.00026452,3.923e-05,0.0,0 STARLINK-3594,1 51895U 22022AV  22255.91667824  .00003923  00000-0  26452-3 0  9994,2 51895  53.2184 317.3041 0001663  43.6433 208.8020 15.08830118  1300,6917.911,95.438,540.9259999999998,538.625,0.0
51895.0,STARLINK-3594,PAYLOAD,2022-09-13 14:00:01,15.08829377,0.0001892,53.218,314.3129,42.7443,232.8948,0.00089238,0.00013939,0.0,0 STARLINK-3594,1 51895U 22022AV  22256.58334491  .00013939  00000-0  89238-3 0  9998,2 51895  53.2180 314.3129 0001892  42.7443 232.8948 15.08829377  1306,6917.913000000001,95.438,541.087,538.469,0.0
51895.0,STARLINK-3594,PAYLOAD,2022-09-13 16:00:00,15.08829675,0.000188,53.2175,313.9384,41.4714,327.0658,0.00080988,0.00012621,0.0,0 STARLINK-3594,1 51895U 22022AV  22256.66667824  .00012621  00000-0  80988-3 0  9996,2 51895  53.2175 313.9384 0001880  41.4714 327.0658 15.08829675 31064,6917.9119999999975,95.438,541.078,538.476,0.0
51895.0,STARLINK-3594,PAYLOAD,2022-09-13 22:00:00,15.08830498,0.0001694,53.2179,312.8148,46.0533,241.163,-0.0023564,-0.00037585,0.0,0 STARLINK-3594,1 51895U 22022AV  22256.91667824 -.00037585  00000-0 -23564-2 0  9998,2 51895  53.2179 312.8148 0001694  46.0533 241.1630 15.08830498  1302,6917.909000000002,95.438,540.946,538.6030000000002,0.0
51895.0,STARLINK-3594,PAYLOAD,2022-09-14 06:00:00,15.08836962,0.0001947,53.2177,311.3174,43.346,255.4075,7.914800000000001e-06,-1.62e-06,0.0,0 STARLINK-3594,1 51895U 22022AV  22257.25001157 -.00000162  00000-0  79148-5 0  9999,2 51895  53.2177 311.3174 0001947  43.3460 255.4075 15.08836962 31141,6917.89,95.438,541.102,538.408,0.0
51895.0,STARLINK-3594,PAYLOAD,2022-09-14 14:00:01,15.08834658,0.0001902,53.2175,309.8238,44.2214,266.1752,0.00072693,0.00011298,0.0,0 STARLINK-3594,1 51895U 22022AV  22257.58334491  .00011298  00000-0  72693-3 0  9992,2 51895  53.2175 309.8238 0001902  44.2214 266.1752 15.08834658  1306,6917.897,95.438,541.078,538.446,0.0
51895.0,STARLINK-3594,PAYLOAD,2022-09-14 22:00:00,15.08817602,0.000171,53.2173,308.3257,46.6077,275.3913,0.0011277999999999,0.00017696,0.0,0 STARLINK-3594,1 51895U 22022AV  22257.91667824  .00017696  00000-0  11278-2 0  9997,2 51895  53.2173 308.3257 0001710  46.6077 275.3913 15.08817602  1300,6917.949000000001,95.439,540.997,538.631,0.0
51895.0,STARLINK-3594,PAYLOAD,2022-09-15 14:00:01,15.08792155,0.0001828,53.2171,305.3345,39.9518,305.221,0.0033676,0.00053645,0.0,0 STARLINK-3594,1 51895U 22022AV  22258.58334491  .00053645  00000-0  33676-2 0  9992,2 51895  53.2171 305.3345 0001828  39.9518 305.2210 15.08792155  1306,6918.026999999999,95.441,541.156,538.627,0.0
51895.0,STARLINK-3594,PAYLOAD,2022-09-15 16:00:00,15.08812505,0.000182,53.2169,304.9601,38.9068,39.1497,0.0013748,0.00021643,0.0,0 STARLINK-3594,1 51895U 22022AV  22258.66667824  .00021643  00000-0  13748-2 0  9991,2 51895  53.2169 304.9601 0001820  38.9068  39.1497 15.08812505  1306,6917.964,95.439,541.089,538.57,0.0
51895.0,STARLINK-3594,PAYLOAD,2022-09-16 09:08:37,15.08829296,0.000195,53.219,301.753,48.1811,311.9348,-3.2247e-05,-8.01e-06,0.0,0 STARLINK-3594,1 51895U 22022AV  22259.38098773 -.00000801  00000-0 -32247-4 0  9994,2 51895  53.2190 301.7530 0001950  48.1811 311.9348 15.08829296 31471,6917.913000000001,95.438,541.127,538.429,0.0
51895.0,STARLINK-3594,PAYLOAD,2022-09-17 02:37:51,15.08836233,0.0001837,53.2196,298.4809,55.4973,304.6192,7.4116e-05,8.92e-06,0.0,0 STARLINK-3594,1 51895U 22022AV  22260.10962007  .00000892  00000-0  74116-4 0  9995,2 51895  53.2196 298.4809 0001837  55.4973 304.6192 15.08836233 31589,6917.892,95.438,541.028,538.486,0.0
51895.0,STARLINK-3594,PAYLOAD,2022-09-17 08:59:23,15.08840407,0.0001924,53.219,297.2931,50.5592,309.557,6.2237e-05,7.02e-06,0.0,0 STARLINK-3594,1 51895U 22022AV  22260.37457842  .00000702  00000-0  62237-4 0  9991,2 51895  53.2190 297.2931 0001924  50.5592 309.5570 15.08840407 31623,6917.879,95.438,541.075,538.413,0.0
51895.0,STARLINK-3594,PAYLOAD,2022-09-17 20:07:06,15.08830916,0.0001929,53.2182,295.211,42.6269,317.4873,-2.1731e-05,-6.34e-06,0.0,0 STARLINK-3594,1 51895U 22022AV  22260.83826811 -.00000634  00000-0 -21731-4 0  9998,2 51895  53.2182 295.2110 0001929  42.6269 317.4873 15.08830916 31694,6917.908,95.438,541.1080000000002,538.439,0.0
